<?xml version="1.0" encoding="UTF-8"?>
<osm version="0.6" generator="AVCS-MapGen">
  <bounds minlat="37.7700" minlon="-122.4300" maxlat="37.7800" maxlon="-122.4100"/>

  <!-- Nodes -->
  <node id="1" lat="37.7750" lon="-122.4200" />
  <node id="2" lat="37.7760" lon="-122.4180" />
  <node id="3" lat="37.7770" lon="-122.4150" />
  <node id="4" lat="37.7780" lon="-122.4120" />
  <node id="5" lat="37.7730" lon="-122.4250" />
  <node id="6" lat="37.7740" lon="-122.4220" />
  <node id="7" lat="37.7720" lon="-122.4180" />
  <node id="8" lat="37.7740" lon="-122.4180" />
  <node id="9" lat="37.7760" lon="-122.4180" />
  <node id="10" lat="37.7780" lon="-122.4180" />
  <node id="11" lat="37.7700" lon="-122.4300" />
  <node id="12" lat="37.7710" lon="-122.4250" />
  <node id="13" lat="37.7720" lon="-122.4200" />
  <node id="14" lat="37.7730" lon="-122.4150" />
  <node id="15" lat="37.7740" lon="-122.4100" />
  <node id="16" lat="37.7750" lon="-122.4220" />
  <node id="17" lat="37.7770" lon="-122.4220" />
  <node id="18" lat="37.7790" lon="-122.4220" />

  <!-- Ways (Roads) -->
  <way id="100">
    <nd ref="1" />
    <nd ref="2" />
    <nd ref="3" />
    <nd ref="4" />
    <tag k="highway" v="primary" />
    <tag k="name" v="Main Street" />
    <tag k="lanes" v="4" />
    <tag k="maxspeed" v="50" />
  </way>

  <way id="101">
    <nd ref="5" />
    <nd ref="6" />
    <nd ref="1" />
    <tag k="highway" v="secondary" />
    <tag k="name" v="Oak Avenue" />
    <tag k="lanes" v="2" />
    <tag k="maxspeed" v="40" />
  </way>

  <way id="102">
    <nd ref="7" />
    <nd ref="8" />
    <nd ref="9" />
    <nd ref="10" />
    <tag k="highway" v="tertiary" />
    <tag k="name" v="Elm Boulevard" />
    <tag k="lanes" v="2" />
    <tag k="maxspeed" v="30" />
  </way>

  <way id="103">
    <nd ref="11" />
    <nd ref="12" />
    <nd ref="13" />
    <nd ref="14" />
    <nd ref="15" />
    <tag k="highway" v="motorway" />
    <tag k="name" v="Highway 101" />
    <tag k="lanes" v="6" />
    <tag k="maxspeed" v="100" />
  </way>

  <way id="104">
    <nd ref="16" />
    <nd ref="17" />
    <nd ref="18" />
    <tag k="highway" v="residential" />
    <tag k="name" v="Pine Lane" />
    <tag k="lanes" v="1" />
    <tag k="maxspeed" v="25" />
  </way>
</osm>
